NORAD_CAT_ID,OBJECT_NAME,OBJECT_TYPE,EPOCH,MEAN_MOTION,ECCENTRICITY,INCLINATION,RA_OF_ASC_NODE,ARG_OF_PERICENTER,MEAN_ANOMALY,BSTAR,MEAN_MOTION_DOT,MEAN_MOTION_DDOT,TLE_LINE0,TLE_LINE1,TLE_LINE2,SEMIMAJOR_AXIS,PERIOD,APOGEE,PERIGEE,DECAYED
53598.0,STARLINK-4676,PAYLOAD,2024-04-10 19:37:55,15.08843505,0.0001592,53.2169,136.7262,87.1488,272.9686,-3.9815e-05,-9.22e-06,0.0,0 STARLINK-4676,1 53598U 22104L   24101.81799945 -.00000922  00000-0 -39815-4 0  9994,2 53598  53.2169 136.7262 0001592  87.1488 272.9686 15.08843505 89576,6917.87,95.437,540.836,538.633,0.0
53598.0,STARLINK-4676,PAYLOAD,2024-04-11 11:31:46,15.08837984,0.0001538,53.2165,133.7521,90.4292,269.6876,3.653e-05,2.93e-06,0.0,0 STARLINK-4676,1 53598U 22104L   24102.48040273  .00000293  00000-0  36530-4 0  9991,2 53598  53.2165 133.7521 0001538  90.4292 269.6876 15.08837984 90364,6917.887,95.438,540.816,538.688,0.0
53598.0,STARLINK-4676,PAYLOAD,2024-04-11 19:28:42,15.08840498,0.0001549,53.2168,132.266,89.8363,270.2807,5.844e-05,6.42e-06,0.0,0 STARLINK-4676,1 53598U 22104L   24102.81160061  .00000642  00000-0  58440-4 0  9998,2 53598  53.2168 132.2660 0001549  89.8363 270.2807 15.08840498 90410,6917.879,95.438,540.815,538.672,0.0
53598.0,STARLINK-4676,PAYLOAD,2024-04-12 01:50:14,15.08842869,0.000165,53.2172,131.0761,89.3069,270.8112,3.8833e-05,3.3e-06,0.0,0 STARLINK-4676,1 53598U 22104L   24103.07655971  .00000330  00000-0  38833-4 0  9994,2 53598  53.2172 131.0761 0001650  89.3069 270.8112 15.08842869 89760,6917.872,95.437,540.878,538.595,0.0
53598.0,STARLINK-4676,PAYLOAD,2024-04-12 08:11:47,15.08844347,0.0001663,53.2171,129.8883,84.9259,275.1923,6.3731e-05,7.26e-06,0.0,0 STARLINK-4676,1 53598U 22104L   24103.34151788  .00000726  00000-0  63731-4 0  9995,2 53598  53.2171 129.8883 0001663  84.9259 275.1923 15.08844347 90498,6917.867,95.437,540.883,538.582,0.0
53598.0,STARLINK-4676,PAYLOAD,2024-04-13 04:51:48,15.08839225,0.0001564,53.2163,126.0222,86.5979,273.5192,9.9208e-05,1.291e-05,0.0,0 STARLINK-4676,1 53598U 22104L   24104.20264013  .00001291  00000-0  99208-4 0  9993,2 53598  53.2163 126.0222 0001564  86.5979 273.5192 15.08839225 89938,6917.883,95.438,540.83,538.666,0.0
53598.0,STARLINK-4676,PAYLOAD,2024-04-13 11:13:20,15.08841764,0.0001506,53.2162,124.8327,86.469,273.6474,7.9626e-05,9.8e-06,0.0,0 STARLINK-4676,1 53598U 22104L   24104.46759915  .00000980  00000-0  79626-4 0  9997,2 53598  53.2162 124.8327 0001506  86.4690 273.6474 15.08841764 90661,6917.875,95.437,540.782,538.698,0.0
53598.0,STARLINK-4676,PAYLOAD,2024-04-14 07:53:21,15.088383,0.0001614,53.2168,120.9661,101.3236,258.7938,1.1658e-05,-1.02e-06,0.0,0 STARLINK-4676,1 53598U 22104L   24105.32872303 -.00000102  00000-0  11658-4 0  9998,2 53598  53.2168 120.9661 0001614 101.3236 258.7938 15.08838300 90108,6917.886,95.438,540.867,538.634,0.0
53598.0,STARLINK-4676,PAYLOAD,2024-04-15 07:44:08,15.08837809,0.0001593,53.2169,116.5054,101.9257,258.1914,4.125e-05,3.69e-06,0.0,0 STARLINK-4676,1 53598U 22104L   24106.32232455  .00000369  00000-0  41250-4 0  9992,2 53598  53.2169 116.5054 0001593 101.9257 258.1914 15.08837809 90944,6917.887,95.438,540.854,538.65,0.0
53598.0,STARLINK-4676,PAYLOAD,2024-04-16 04:24:09,15.08838124,0.0001549,53.2171,112.643,100.4702,259.6464,8.8909e-05,1.127e-05,0.0,0 STARLINK-4676,1 53598U 22104L   24107.18344639  .00001127  00000-0  88909-4 0  9990,2 53598  53.2171 112.6430 0001549 100.4702 259.6464 15.08838124 90387,6917.886,95.438,540.823,538.68,0.0
53598.0,STARLINK-4676,PAYLOAD,2024-04-16 09:10:19,15.08840557,0.0001537,53.2172,111.7503,97.1715,262.9452,0.00010418,1.37e-05,0.0,0 STARLINK-4676,1 53598U 22104L   24107.38216499  .00001370  00000-0  10418-3 0  9993,2 53598  53.2172 111.7503 0001537  97.1715 262.9452 15.08840557 91100,6917.879,95.438,540.807,538.68,0.0
53598.0,STARLINK-4676,PAYLOAD,2024-04-16 17:07:14,15.08840946,0.0001521,53.2171,110.2634,97.3418,262.7747,0.00010384,1.365e-05,0.0,0 STARLINK-4676,1 53598U 22104L   24107.71336532  .00001365  00000-0  10384-3 0  9997,2 53598  53.2171 110.2634 0001521  97.3418 262.7747 15.08840946 91155,6917.877,95.437,540.795,538.69,0.0
53598.0,STARLINK-4676,PAYLOAD,2024-04-17 07:25:42,15.08850892,0.0001494,53.217,107.5867,96.3986,263.7177,0.00016347,2.315e-05,0.0,0 STARLINK-4676,1 53598U 22104L   24108.30951800  .00002315  00000-0  16347-3 0  9995,2 53598  53.2170 107.5867 0001494  96.3986 263.7177 15.08850892 90551,6917.847,95.437,540.746,538.679,0.0
53598.0,STARLINK-4676,PAYLOAD,2024-04-18 04:05:44,15.08831767,0.0001617,53.2162,103.7201,83.3844,276.7332,-3.4735e-05,-8.41e-06,0.0,0 STARLINK-4676,1 53598U 22104L   24109.17065165 -.00000841  00000-0 -34735-4 0  9997,2 53598  53.2162 103.7201 0001617  83.3844 276.7332 15.08831767 90689,6917.906,95.438,540.889,538.652,0.0
53598.0,STARLINK-4676,PAYLOAD,2024-04-18 08:51:53,15.08834249,0.0001389,53.2167,102.8272,91.4607,268.6544,-1.6263e-05,-5.47e-06,0.0,0 STARLINK-4676,1 53598U 22104L   24109.36937499 -.00000547  00000-0 -16263-4 0  9995,2 53598  53.2167 102.8272 0001389  91.4607 268.6544 15.08834249 91409,6917.898,95.438,540.724,538.802,0.0
53598.0,STARLINK-4676,PAYLOAD,2024-04-19 03:56:30,15.08844307,0.000134,53.2171,99.2573,94.885,265.2295,6.5123e-05,7.49e-06,0.0,0 STARLINK-4676,1 53598U 22104L   24110.16424716  .00000749  00000-0  65123-4 0  9999,2 53598  53.2171  99.2573 0001340  94.8850 265.2295 15.08844307 90839,6917.867,95.437,540.659,538.805,0.0
53598.0,STARLINK-4676,PAYLOAD,2024-04-19 08:42:39,15.08852951,0.000137,53.2174,98.3639,99.2741,260.8406,0.00010556,1.393e-05,0.0,0 STARLINK-4676,1 53598U 22104L   24110.36296059  .00001393  00000-0  10556-3 0  9993,2 53598  53.2174  98.3639 0001370  99.2741 260.8406 15.08852951 90868,6917.841,95.437,540.654,538.758,0.0
53598.0,STARLINK-4676,PAYLOAD,2024-04-20 05:22:41,15.08848107,0.0001748,53.217,94.5,96.2329,263.8862,0.00028207,4.205e-05,0.0,0 STARLINK-4676,1 53598U 22104L   24111.22408676  .00004205  00000-0  28207-3 0  9996,2 53598  53.2170  94.5000 0001748  96.2329 263.8862 15.08848107 90993,6917.856,95.437,540.93,538.511,0.0
53598.0,STARLINK-4676,PAYLOAD,2024-04-21 03:38:06,15.08827137,0.0001654,53.2174,90.3364,106.5992,253.5182,-0.00014722,-2.629e-05,0.0,0 STARLINK-4676,1 53598U 22104L   24112.15146008 -.00002629  00000-0 -14722-3 0  9994,2 53598  53.2174  90.3364 0001654 106.5992 253.5182 15.08827137 91139,6917.92,95.438,540.929,538.64,0.0
53598.0,STARLINK-4676,PAYLOAD,2024-04-21 08:24:16,15.0882714,0.0001694,53.2183,89.445,115.9644,244.1523,-9.552e-05,-1.807e-05,0.0,0 STARLINK-4676,1 53598U 22104L   24112.35018634 -.00001807  00000-0 -95520-4 0  9992,2 53598  53.2183  89.4450 0001694 115.9644 244.1523 15.08827140 91854,6917.92,95.438,540.957,538.613,0.0
53598.0,STARLINK-4676,PAYLOAD,2024-04-21 22:42:43,15.08839984,0.0001167,53.2183,86.772,84.8906,275.2219,-7.7418e-06,-4.11e-06,0.0,0 STARLINK-4676,1 53598U 22104L   24112.94634002 -.00000411  00000-0 -77418-5 0  9997,2 53598  53.2183  86.7720 0001167  84.8906 275.2219 15.08839984 91940,6917.88,95.438,540.553,538.938,0.0
53598.0,STARLINK-4676,PAYLOAD,2024-04-22 01:53:29,15.0883942,0.0001314,53.2182,86.1775,79.7781,280.3359,4.1404e-05,3.71e-06,0.0,0 STARLINK-4676,1 53598U 22104L   24113.07881780  .00000371  00000-0  41404-4 0  9997,2 53598  53.2182  86.1775 0001314  79.7781 280.3359 15.08839420 91274,6917.882,95.438,540.656,538.838,0.0
53598.0,STARLINK-4676,PAYLOAD,2024-04-22 08:15:01,15.08855303,0.0001606,53.2174,84.983,115.5725,244.5433,0.00023869,3.514e-05,0.0,0 STARLINK-4676,1 53598U 22104L   24113.34376725  .00003514  00000-0  23869-3 0  9991,2 53598  53.2174  84.9830 0001606 115.5725 244.5433 15.08855303 91312,6917.834,95.437,540.81,538.588,0.0
53598.0,STARLINK-4676,PAYLOAD,2024-04-22 22:33:30,15.08832542,0.0001378,53.2168,82.3011,114.1217,245.9919,0.00016881,2.399e-05,0.0,0 STARLINK-4676,1 53598U 22104L   24113.93994115  .00002399  00000-0  16881-3 0  9991,2 53598  53.2168  82.3011 0001378 114.1217 245.9919 15.08832542 92095,6917.903,95.438,540.721,538.815,0.0
53598.0,STARLINK-4676,PAYLOAD,2024-04-23 04:55:03,15.08831056,0.0001234,53.2176,81.1131,101.0779,259.0352,0.00017791,2.544e-05,0.0,0 STARLINK-4676,1 53598U 22104L   24114.20490292  .00002544  00000-0  17791-3 0  9992,2 53598  53.2176  81.1131 0001234 101.0779 259.0352 15.08831056 91447,6917.908,95.438,540.626,538.919,0.0
53598.0,STARLINK-4676,PAYLOAD,2024-04-24 06:21:12,15.08852449,0.000138,53.2165,76.3575,108.6352,251.479,0.00010628,1.404e-05,0.0,0 STARLINK-4676,1 53598U 22104L   24115.26473363  .00001404  00000-0  10628-3 0  9995,2 53598  53.2165  76.3575 0001380 108.6352 251.4790 15.08852449 91604,6917.842,95.437,540.662,538.753,0.0
53598.0,STARLINK-4676,PAYLOAD,2024-04-24 20:39:41,15.08840185,0.0001752,53.2188,73.6876,114.3462,245.7714,0.00014527,2.025e-05,0.0,0 STARLINK-4676,1 53598U 22104L   24115.86090072  .00002025  00000-0  14527-3 0  9995,2 53598  53.2188  73.6876 0001752 114.3462 245.7714 15.08840185 91697,6917.88,95.438,540.957,538.533,0.0
53598.0,STARLINK-4676,PAYLOAD,2024-04-25 06:12:00,15.08843808,0.0001417,53.2168,71.9026,75.4496,284.6653,0.00014315,1.991e-05,0.0,0 STARLINK-4676,1 53598U 22104L   24116.25834075  .00001991  00000-0  14315-3 0  9994,2 53598  53.2168  71.9026 0001417  75.4496 284.6653 15.08843808 92448,6917.869,95.437,540.714,538.753,0.0
53598.0,STARLINK-4676,PAYLOAD,2024-04-26 04:27:24,15.08849405,0.0001611,53.2184,67.739,78.7621,281.3552,9.9823e-05,1.301e-05,0.0,0 STARLINK-4676,1 53598U 22104L   24117.18569801  .00001301  00000-0  99823-4 0  9992,2 53598  53.2184  67.7390 0001611  78.7621 281.3552 15.08849405 91894,6917.852,95.437,540.831,538.602,0.0
53598.0,STARLINK-4676,PAYLOAD,2024-04-27 01:07:25,15.08842799,0.0001563,53.2178,63.8762,84.3778,275.7392,0.00010208,1.337e-05,0.0,0 STARLINK-4676,1 53598U 22104L   24118.04682061  .00001337  00000-0  10208-3 0  9990,2 53598  53.2178  63.8762 0001563  84.3778 275.7392 15.08842799 92023,6917.872,95.437,540.818,538.656,0.0
